$$SOE
2460721.500000000, A.D. 2025-Feb-15 00:00:00.0000, 2.729828234603605E+08, -9.922841147602606E+07, 1.821448338492851E+07,
2460728.500000000, A.D. 2025-Feb-22 00:00:00.0000, 2.765704813507937E+08, -8.601235930539715E+07, 1.775598291039539E+07,
2460735.500000000, A.D. 2025-Mar-01 00:00:00.0000, 2.796087779583485E+08, -7.262552968507332E+07, 1.726221381305961E+07,
2460742.500000000, A.D. 2025-Mar-08 00:00:00.0000, 2.820871921971089E+08, -5.909334232495441E+07, 1.673387928700729E+07,
2460749.500000000, A.D. 2025-Mar-15 00:00:00.0000, 2.839966134504334E+08, -4.544201723220102E+07, 1.617179050895610E+07,
2460756.500000000, A.D. 2025-Mar-22 00:00:00.0000, 2.853294161764420E+08, -3.169847699813775E+07, 1.557686599202818E+07,
2460763.500000000, A.D. 2025-Mar-29 00:00:00.0000, 2.860795274857848E+08, -1.789024269983482E+07, 1.495012980148041E+07,
2460770.500000000, A.D. 2025-Apr-05 00:00:00.0000, 2.862424868677285E+08, -4.045321156540574E+06, 1.429270884381365E+07,
2460777.500000000, A.D. 2025-Apr-12 00:00:00.0000, 2.858154951062869E+08, 9.807915510471625E+06, 1.360582941437522E+07,
2460784.500000000, A.D. 2025-Apr-19 00:00:00.0000, 2.847974513060732E+08, 2.364085592313355E+07, 1.289081296281253E+07,
2460791.500000000, A.D. 2025-Apr-26 00:00:00.0000, 2.831889775705006E+08, 3.742477954977843E+07, 1.214907106340150E+07,
2460798.500000000, A.D. 2025-May-03 00:00:00.0000, 2.809924309045072E+08, 5.113098943439353E+07, 1.138209962431100E+07,
2460805.500000000, A.D. 2025-May-10 00:00:00.0000, 2.782119020348346E+08, 6.473094603326175E+07, 1.059147239074289E+07,
2460812.500000000, A.D. 2025-May-17 00:00:00.0000, 2.748532010679668E+08, 7.819640054843837E+07, 9.778833805105537E+06,
2460819.500000000, A.D. 2025-May-24 00:00:00.0000, 2.709238302691795E+08, 9.149952612647332E+07, 8.945891285140816E+06,
2460826.500000000, A.D. 2025-May-31 00:00:00.0000, 2.664329447107404E+08, 1.046130456799976E+08, 8.094406996769175E+06,
2460833.500000000, A.D. 2025-Jun-07 00:00:00.0000, 2.613913009184391E+08, 1.175103560481517E+08, 7.226189353023596E+06,
2460840.500000000, A.D. 2025-Jun-14 00:00:00.0000, 2.558111918899454E+08, 1.301656464568045E+08, 6.343084506749541E+06,
2460847.500000000, A.D. 2025-Jun-21 00:00:00.0000, 2.497063706469670E+08, 1.425540067581873E+08, 5.446967566376746E+06,
2460854.500000000, A.D. 2025-Jun-28 00:00:00.0000, 2.430919665326083E+08, 1.546515261042056E+08, 4.539733496378712E+06,
2460861.500000000, A.D. 2025-Jul-05 00:00:00.0000, 2.359843939357157E+08, 1.664353832828495E+08, 3.623288121099137E+06,
2460868.500000000, A.D. 2025-Jul-12 00:00:00.0000, 2.284012535538398E+08, 1.778839271808689E+08, 2.699539375711456E+06,
2460875.500000000, A.D. 2025-Jul-19 00:00:00.0000, 2.203612277540723E+08, 1.889767462643738E+08, 1.770388833692536E+06,
2460882.500000000, A.D. 2025-Jul-26 00:00:00.0000, 2.118839716427704E+08, 1.996947266878365E+08, 8.377235721335560E+05,
2460889.500000000, A.D. 2025-Aug-02 00:00:00.0000, 2.029900013104221E+08, 2.100200989153114E+08, -9.659155433298647E+04,
2460896.500000000, A.D. 2025-Aug-09 00:00:00.0000, 1.937005806440123E+08, 2.199364728835562E+08, -1.030721170855358E+06,
2460903.500000000, A.D. 2025-Aug-16 00:00:00.0000, 1.840376080877486E+08, 2.294288618543555E+08, -1.962866131497800E+06,
2460910.500000000, A.D. 2025-Aug-23 00:00:00.0000, 1.740235048548420E+08, 2.384836953393257E+08, -2.891269744625837E+06,
2460917.500000000, A.D. 2025-Aug-30 00:00:00.0000, 1.636811060236324E+08, 2.470888223276506E+08, -3.814223414981395E+06,
2460924.500000000, A.D. 2025-Sep-06 00:00:00.0000, 1.530335540929378E+08, 2.552335064562541E+08, -4.730071469209567E+06,
2460931.500000000, A.D. 2025-Sep-13 00:00:00.0000, 1.421041941938641E+08, 2.629084113823367E+08, -5.637215201818824E+06,
2460938.500000000, A.D. 2025-Sep-20 00:00:00.0000, 1.309164749950313E+08, 2.701055755451795E+08, -6.534116576555118E+06,
2460945.500000000, A.D. 2025-Sep-27 00:00:00.0000, 1.194938569989067E+08, 2.768183802788869E+08, -7.419301439931035E+06,
2460952.500000000, A.D. 2025-Oct-04 00:00:00.0000, 1.078597266950789E+08, 2.830415126738433E+08, -8.291362037860543E+06,
2460959.500000000, A.D. 2025-Oct-11 00:00:00.0000, 9.603731654426780E+07, 2.887709231170924E+08, -9.148958903360114E+06,
2460966.500000000, A.D. 2025-Oct-18 00:00:00.0000, 8.404963130504116E+07, 2.940037781054697E+08, -9.990822194177866E+06,
2460973.500000000, A.D. 2025-Oct-25 00:00:00.0000, 7.191938096108295E+07, 2.987384091879032E+08, -1.081575252690583E+07,
2460980.500000000, A.D. 2025-Nov-01 00:00:00.0000, 5.966892030721432E+07, 3.029742588617138E+08, -1.162262134777820E+07,
2460987.500000000, A.D. 2025-Nov-08 00:00:00.0000, 4.732019515924656E+07, 3.067118241544691E+08, -1.241037088593933E+07,
2460994.500000000, A.D. 2025-Nov-15 00:00:00.0000, 3.489469518938151E+07, 3.099525985418850E+08, -1.317801374881132E+07,
2461001.500000000, A.D. 2025-Nov-22 00:00:00.0000, 2.241341357860228E+07, 3.126990130730174E+08, -1.392463222028534E+07,
2461008.500000000, A.D. 2025-Nov-29 00:00:00.0000, 9.896813070433350E+06, 3.149543784305318E+08, -1.464937719716807E+07,
2461015.500000000, A.D. 2025-Dec-06 00:00:00.0000, -2.635204148187915E+06, 3.167228283140694E+08, -1.535146660773675E+07,
2461022.500000000, A.D. 2025-Dec-13 00:00:00.0000, -1.516332263918340E+07, 3.180092612201629E+08, -1.603018366437018E+07,
2461029.500000000, A.D. 2025-Dec-20 00:00:00.0000, -2.766883285075379E+07, 3.188192820394029E+08, -1.668487522254282E+07,
2461036.500000000, A.D. 2025-Dec-27 00:00:00.0000, -4.013364463802254E+07, 3.191591464056213E+08, -1.731494997184640E+07,
2461043.500000000, A.D. 2026-Jan-03 00:00:00.0000, -5.254029699744165E+07, 3.190357074505483E+08, -1.791987640632840E+07,
2461050.500000000, A.D. 2026-Jan-10 00:00:00.0000, -6.487196428526778E+07, 3.184563645010336E+08, -1.849918066701004E+07,
2461057.500000000, A.D. 2026-Jan-17 00:00:00.0000, -7.711245906528227E+07, 3.174290138015808E+08, -1.905244431107122E+07,
2461064.500000000, A.D. 2026-Jan-24 00:00:00.0000, -8.924623187527254E+07, 3.159620014211494E+08, -1.957930203717737E+07,
2461071.500000000, A.D. 2026-Jan-31 00:00:00.0000, -1.012583682398722E+08, 3.140640784373699E+08, -2.007943939210156E+07,
2461078.500000000, A.D. 2026-Feb-07 00:00:00.0000, -1.131345831991725E+08, 3.117443584065474E+08, -2.055259048900163E+07,
2461085.500000000, A.D. 2026-Feb-14 00:00:00.0000, -1.248612134100883E+08, 3.090122771364942E+08, -2.099853577903740E+07,
2461092.500000000, A.D. 2026-Feb-21 00:00:00.0000, -1.364252067234720E+08, 3.058775553419524E+08, -2.141709987919198E+07,
2461099.500000000, A.D. 2026-Feb-28 00:00:00.0000, -1.478141105940345E+08, 3.023501653168757E+08, -2.180814927526477E+07,
2461106.500000000, A.D. 2026-Mar-07 00:00:00.0000, -1.590160616293074E+08, 2.984402996359526E+08, -2.217158988164672E+07,
2461113.500000000, A.D. 2026-Mar-14 00:00:00.0000, -1.700197737250979E+08, 2.941583394867078E+08, -2.250736490953314E+07,
2461120.500000000, A.D. 2026-Mar-21 00:00:00.0000, -1.808145232203518E+08, 2.895148254526703E+08, -2.281545297560203E+07,
2461127.500000000, A.D. 2026-Mar-28 00:00:00.0000, -1.913901332769536E+08, 2.845204317029432E+08, -2.309586618991831E+07,
2461134.500000000, A.D. 2026-Apr-04 00:00:00.0000, -2.017369582577861E+08, 2.791859425370082E+08, -2.334864825117826E+07,
2461141.500000000, A.D. 2026-Apr-11 00:00:00.0000, -2.118458679823183E+08, 2.735222308293933E+08, -2.357387260635693E+07,
2461148.500000000, A.D. 2026-Apr-18 00:00:00.0000, -2.217082318387356E+08, 2.675402382696306E+08, -2.377164069184151E+07,
2461155.500000000, A.D. 2026-Apr-25 00:00:00.0000, -2.313159028295790E+08, 2.612509573137400E+08, -2.394208026050039E+07,
2461162.500000000, A.D. 2026-May-02 00:00:00.0000, -2.406612016277233E+08, 2.546654147194468E+08, -2.408534380083050E+07,
2461169.500000000, A.D. 2026-May-09 00:00:00.0000, -2.497369006102934E+08, 2.477946565015869E+08, -2.420160706520538E+07,
2461176.500000000, A.D. 2026-May-16 00:00:00.0000, -2.585362075693411E+08, 2.406497343488319E+08, -2.429106772960924E+07,
2461183.500000000, A.D. 2026-May-23 00:00:00.0000, -2.670527491110575E+08, 2.332416944253116E+08, -2.435394410364997E+07,
2461190.500000000, A.D. 2026-May-30 00:00:00.0000, -2.752805558787536E+08, 2.255815687778275E+08, -2.439047367123426E+07,
2461197.500000000, A.D. 2026-Jun-06 00:00:00.0000, -2.832140499682851E+08, 2.176803659813758E+08, -2.440091169802498E+07,
2461204.500000000, A.D. 2026-Jun-13 00:00:00.0000, -2.908480309114760E+08, 2.095490611300451E+08, -2.438553022270705E+07,
2461211.500000000, A.D. 2026-Jun-20 00:00:00.0000, -2.981776607700500E+08, 2.011985880120754E+08, -2.434461714543169E+07,
2461218.500000000, A.D. 2026-Jun-27 00:00:00.0000, -3.051984500766669E+08, 1.926398330568723E+08, -2.427847528630453E+07,
2461225.500000000, A.D. 2026-Jul-04 00:00:00.0000, -3.119062446463633E+08, 1.838836302120550E+08, -2.418742147660852E+07,
2461232.500000000, A.D. 2026-Jul-11 00:00:00.0000, -3.182972130178772E+08, 1.749407565495773E+08, -2.407178571429806E+07,
2461239.500000000, A.D. 2026-Jul-18 00:00:00.0000, -3.243678344418116E+08, 1.658219285583702E+08, -2.393191038717222E+07,
2461246.500000000, A.D. 2026-Jul-25 00:00:00.0000, -3.301148873983861E+08, 1.565377990612472E+08, -2.376814956284054E+07,
2461253.500000000, A.D. 2026-Aug-01 00:00:00.0000, -3.355354386013961E+08, 1.470989546470757E+08, -2.358086835108016E+07,
2461260.500000000, A.D. 2026-Aug-08 00:00:00.0000, -3.406268322756560E+08, 1.375159135255685E+08, -2.337044235857264E+07,
2461267.500000000, A.D. 2026-Aug-15 00:00:00.0000, -3.453866792924769E+08, 1.277991242020056E+08, -2.313725723464284E+07,
2461274.500000000, A.D. 2026-Aug-22 00:00:00.0000, -3.498128469222081E+08, 1.179589661430689E+08, -2.288170813587137E+07,
2461281.500000000, A.D. 2026-Aug-29 00:00:00.0000, -3.539034514921114E+08, 1.080057510148335E+08, -2.260419900995790E+07,
2461288.500000000, A.D. 2026-Sep-05 00:00:00.0000, -3.576568518140449E+08, 9.794972158508779E+07, -2.230514212728311E+07,
$$EOE